[{"OBJECT_NAME":"SCS-01 H","OBJECT_ID":"2025-100H","EPOCH":"2026-03-09T23:19:05.376864","MEAN_MOTION":15.31767757,"ECCENTRICITY":0.00071581,"INCLINATION":97.3749,"RA_OF_ASC_NODE":145.8085,"ARG_OF_PERICENTER":277.8492,"MEAN_ANOMALY":82.1937,"EPHEMERIS_TYPE":0,"CLASSIFICATION_TYPE":"U","NORAD_CAT_ID":63989,"ELEMENT_SET_NO":999,"REV_AT_EPOCH":4566,"BSTAR":0.0011436254,"MEAN_MOTION_DOT":0.00035149,"MEAN_MOTION_DDOT":0},{"OBJECT_NAME":"STARLINK-35927","OBJECT_ID":"2025-271H","EPOCH":"2026-03-09T12:19:13.955808","MEAN_MOTION":15.30193227,"ECCENTRICITY":0.00012551,"INCLINATION":53.1598,"RA_OF_ASC_NODE":140.4708,"ARG_OF_PERICENTER":107.8236,"MEAN_ANOMALY":252.2902,"EPHEMERIS_TYPE":0,"CLASSIFICATION_TYPE":"U","NORAD_CAT_ID":66624,"ELEMENT_SET_NO":999,"REV_AT_EPOCH":1754,"BSTAR":0.0010929064,"MEAN_MOTION_DOT":0.00032143,"MEAN_MOTION_DDOT":0}]
